
 PEER Ground Motion Database, Time Series Search Report -- NGA-West2 -- 2024-03-04


 -- Summary of PEER Ground Motion Database Search Criteria --
Magnitude Min:, 6.24
Magnitude Max:, 7.68
Rrup Min (km):, -1.0e-06
Rrup Max (km):, 99999
Rjb Min (km):, -1.0e-06
Rjb Max (km):, 99999
Vs30 Min (m/sec):, -1.0e-06
Vs30 Max (m/sec):, 99999
D9-95 Min (sec):, -1.0e-06
D9-95 Max (sec):, 99999
Scale Factor Min:, -1.0e-06
Scale Factor Max:, 99999
Period Array:, 
Weight Array:, 
Record Sequence Number:, 
Earthquake Name:, 
Station Name:, 
User-Defined Maximum Number of Records:, 
Pulse:, 1
Damping Ratio:, 0.05
Scaling Method:, No Scaling
Suite Average:, Arithmetic
Single-Period-Scaling Period (sec):, 
Component:, SRSS
Fault Type:, All Types


 -- Summary of Metadata of Selected Records --
Result ID, Spectral Ordinate, Record Sequence Number, Mean Squared Error, Scale Factor, Tp-Pulse Period (sec), 5-75% Duration (sec), 5-95% Duration (sec), Arias Intensity (m/sec), Earthquake Name, Year, Station Name, Magnitude, Mechanism, Rjb (km), Rrup (km), Vs30 (m/sec), Lowest Useable Frequency (Hz), Initial-search Scale Factor, Horizontal-1 Acc. Filename, Horizontal-2 Acc. Filename, Vertical Acc. Filename
1, SRSS, 6, -, 1.0, -, 17.7, 24.2, 1.6, "Imperial Valley-02", 1940, "El Centro Array #9", 6.95, strike slip, 6.09, 6.09, 213.44, 0.25, 1.0, RSN6_IMPVALL.I_I-ELC180.AT2, RSN6_IMPVALL.I_I-ELC270.AT2 , RSN6_IMPVALL.I_I-ELC-UP.AT2  
2, SRSS, 7, -, 1.0, -, 9.0, 22.2, 0.0, "Northwest Calif-02", 1941, "Ferndale City Hall", 6.6, strike slip, 91.15, 91.22, 219.31, 0.1625, 1.0, RSN7_NWCALIF.C_C-FRN045.AT2, RSN7_NWCALIF.C_C-FRN135.AT2 , RSN7_NWCALIF.C_C-FRN-UP.AT2  
3, SRSS, 8, -, 1.0, -, 4.8, 15.5, 0.1, "Northern Calif-01", 1941, "Ferndale City Hall", 6.4, strike slip, 44.52, 44.68, 219.31, 0.375, 1.0, RSN8_NCALIF.FH_F-FRN225.AT2, RSN8_NCALIF.FH_F-FRN315.AT2 , RSN8_NCALIF.FH_F-FRN-UP.AT2  
4, SRSS, 9, -, 1.0, -, 21.5, 37.2, 0.1, "Borrego", 1942, "El Centro Array #9", 6.5, strike slip, 56.88, 56.88, 213.44, 0.125, 1.0, RSN9_BORREGO_B-ELC000.AT2, RSN9_BORREGO_B-ELC090.AT2 , RSN9_BORREGO_B-ELC-UP.AT2  
5, SRSS, 12, -, 1.0, -, 18.6, 33.5, 0.1, "Kern County", 1952, "LA - Hollywood Stor FF", 7.36, Reverse, 114.62, 117.75, 316.46, 0.125, 1.0, RSN12_KERN.PEL_PEL090.AT2, RSN12_KERN.PEL_PEL180.AT2 , RSN12_KERN.PEL_PEL-UP.AT2  
6, SRSS, 13, -, 1.0, -, 16.6, 29.5, 0.1, "Kern County", 1952, "Pasadena - CIT Athenaeum", 7.36, Reverse, 122.65, 125.59, 415.13, 0.25, 1.0, RSN13_KERN_PAS180.AT2, RSN13_KERN_PAS270.AT2 , RSN13_KERN_PAS-UP.AT2  
7, SRSS, 14, -, 1.0, -, 12.4, 33.6, 0.3, "Kern County", 1952, "Santa Barbara Courthouse", 7.36, Reverse, 81.3, 82.19, 514.99, 0.375, 1.0, RSN14_KERN_SBA042.AT2, RSN14_KERN_SBA132.AT2 , RSN14_KERN_SBA-UP.AT2  
8, SRSS, 15, -, 1.0, -, 10.7, 30.3, 0.6, "Kern County", 1952, "Taft Lincoln School", 7.36, Reverse, 38.42, 38.89, 385.43, 0.125, 1.0, RSN15_KERN_TAF021.AT2, RSN15_KERN_TAF111.AT2 , RSN15_KERN_TAF-UP.AT2  
9, SRSS, 20, -, 1.0, -, 6.8, 19.4, 0.5, "Northern Calif-03", 1954, "Ferndale City Hall", 6.5, strike slip, 26.72, 27.02, 219.31, 0.125, 1.0, RSN20_NCALIF.FH_H-FRN044.AT2, RSN20_NCALIF.FH_H-FRN314.AT2 , RSN20_NCALIF.FH_H-FRN-UP.AT2  
10, SRSS, 22, -, 1.0, -, 23.0, 40.9, 0.1, "El Alamo", 1956, "El Centro Array #9", 6.8, strike slip, 121.0, 121.7, 213.44, 0.2875, 1.0, RSN22_ELALAMO_ELC180.AT2, RSN22_ELALAMO_ELC270.AT2 , RSN22_ELALAMO_ELC-UP.AT2  
11, SRSS, 36, -, 1.0, -, 25.0, 49.3, 0.2, "Borrego Mtn", 1968, "El Centro Array #9", 6.63, strike slip, 45.12, 45.66, 213.44, 0.1, 1.0, RSN36_BORREGO_A-ELC180.AT2, RSN36_BORREGO_A-ELC270.AT2 , RSN36_BORREGO_A-ELC-UP.AT2  
12, SRSS, 37, -, 1.0, -, 17.9, 26.3, 0.0, "Borrego Mtn", 1968, "LA - Hollywood Stor FF", 6.63, strike slip, 222.42, 222.42, 316.46, 0.1625, 1.0, RSN37_BORREGO_A-PEL090.AT2, RSN37_BORREGO_A-PEL180.AT2 , RSN37_BORREGO_A-PEL-UP.AT2  
13, SRSS, 38, -, 1.0, -, 31.9, 37.9, 0.0, "Borrego Mtn", 1968, "LB - Terminal Island", 6.63, strike slip, 199.84, 199.84, 217.92, 0.25, 1.0, RSN38_BORREGO_A-TLI249.AT2, RSN38_BORREGO_A-TLI339.AT2 , RSN38_BORREGO_A-TLI-UP.AT2  
14, SRSS, 39, -, 1.0, -, 25.0, 37.4, 0.0, "Borrego Mtn", 1968, "Pasadena - CIT Athenaeum", 6.63, strike slip, 207.14, 207.14, 415.13, 0.1625, 1.0, RSN39_BORREGO_A-PAS180.AT2, RSN39_BORREGO_A-PAS270.AT2 , RSN39_BORREGO_A-PAS-UP.AT2  
15, SRSS, 40, -, 1.0, -, 19.3, 28.0, 0.0, "Borrego Mtn", 1968, "San Onofre - So Cal Edison", 6.63, strike slip, 129.11, 129.11, 442.88, 0.1625, 1.0, RSN40_BORREGO_A-SON033.AT2, RSN40_BORREGO_A-SON303.AT2 , RSN40_BORREGO_A-SON-UP.AT2  
16, SRSS, 51, -, 1.0, -, 27.6, 54.2, 0.0, "San Fernando", 1971, "2516 Via Tejon PV", 6.61, Reverse, 55.2, 55.2, 280.56, 0.25, 1.0, RSN51_SFERN_PVE065.AT2, RSN51_SFERN_PVE155.AT2 , RSN51_SFERN_PVEDWN.AT2  
17, SRSS, 52, -, 1.0, -, 8.1, 15.4, 0.0, "San Fernando", 1971, "Anza Post Office", 6.61, Reverse, 173.16, 173.16, 360.45, 0.625, 1.0, RSN52_SFERN_AZP045.AT2, RSN52_SFERN_AZP315.AT2 , RSN52_SFERN_AZPDWN.AT2  
18, SRSS, 53, -, 1.0, -, 24.1, 35.3, 0.0, "San Fernando", 1971, "Bakersfield - Harvey Aud", 6.61, Reverse, 111.88, 113.02, 241.41, 0.125, 1.0, RSN53_SFERN_BFA180.AT2, RSN53_SFERN_BFA270.AT2 , RSN53_SFERN_BFA-UP.AT2  
19, SRSS, 54, -, 1.0, -, 13.6, 22.0, 0.0, "San Fernando", 1971, "Borrego Springs Fire Sta", 6.61, Reverse, 214.32, 214.32, 338.54, 0.125, 1.0, RSN54_SFERN_BSF135.AT2, RSN54_SFERN_BSF225.AT2 , RSN54_SFERN_BSFDWN.AT2  
20, SRSS, 55, -, 1.0, -, 13.6, 21.6, 0.0, "San Fernando", 1971, "Buena Vista - Taft", 6.61, Reverse, 111.37, 112.52, 385.69, 0.125, 1.0, RSN55_SFERN_BVP090.AT2, RSN55_SFERN_BVP180.AT2 , RSN55_SFERN_BVPDWN.AT2  
21, SRSS, 56, -, 1.0, -, 9.0, 18.9, 0.1, "San Fernando", 1971, "Carbon Canyon Dam", 6.61, Reverse, 61.79, 61.79, 235.0, 0.625, 1.0, RSN56_SFERN_CND130.AT2, RSN56_SFERN_CND220.AT2 , RSN56_SFERN_CNDDWN.AT2  
22, SRSS, 57, -, 1.0, -, 10.6, 16.8, 1.0, "San Fernando", 1971, "Castaic - Old Ridge Route", 6.61, Reverse, 19.33, 22.63, 450.28, 0.375, 1.0, RSN57_SFERN_ORR021.AT2, RSN57_SFERN_ORR291.AT2 , RSN57_SFERN_ORRDWN.AT2  
23, SRSS, 58, -, 1.0, -, 4.6, 10.2, 0.0, "San Fernando", 1971, "Cedar Springs Pumphouse", 6.61, Reverse, 92.25, 92.59, 477.22, 0.125, 1.0, RSN58_SFERN_CSP126.AT2, RSN58_SFERN_CSP216.AT2 , RSN58_SFERN_CSPDWN.AT2  
24, SRSS, 59, -, 1.0, -, 5.8, 10.4, 0.0, "San Fernando", 1971, "Cedar Springs_ Allen Ranch", 6.61, Reverse, 89.37, 89.72, 813.48, 0.375, 1.0, RSN59_SFERN_CSM095.AT2, RSN59_SFERN_CSM185.AT2 , RSN59_SFERN_CSMDWN.AT2  
25, SRSS, 60, -, 1.0, -, 17.9, 25.5, 0.0, "San Fernando", 1971, "Cholame - Shandon Array #2", 6.61, Reverse, 217.54, 218.13, 184.75, 0.125, 1.0, RSN60_SFERN_C02051.AT2, RSN60_SFERN_C02321.AT2 , RSN60_SFERN_C02DWN.AT2  
26, SRSS, 61, -, 1.0, -, 16.9, 23.7, 0.0, "San Fernando", 1971, "Cholame - Shandon Array #8", 6.61, Reverse, 218.17, 218.75, 256.82, 0.125, 1.0, RSN61_SFERN_C08051.AT2, RSN61_SFERN_C08321.AT2 ,  -----   
27, SRSS, 62, -, 1.0, -, 5.1, 7.3, 0.0, "San Fernando", 1971, "Colton - So Cal Edison", 6.61, Reverse, 96.81, 96.81, 301.95, 0.125, 1.0, RSN62_SFERN_CLN090.AT2, RSN62_SFERN_CLN180.AT2 , RSN62_SFERN_CLN-UP.AT2  
28, SRSS, 63, -, 1.0, -, 3.6, 14.4, 0.1, "San Fernando", 1971, "Fairmont Dam", 6.61, Reverse, 25.58, 30.19, 634.33, 0.1875, 1.0, RSN63_SFERN_FTR056.AT2, RSN63_SFERN_FTR326.AT2 , RSN63_SFERN_FTR-UP.AT2  
29, SRSS, 64, -, 1.0, -, 5.0, 8.3, 0.0, "San Fernando", 1971, "Fort Tejon", 6.61, Reverse, 59.52, 61.64, 394.18, 0.125, 1.0, RSN64_SFERN_FTJ000.AT2, RSN64_SFERN_FTJ090.AT2 , RSN64_SFERN_FTJ-UP.AT2  
30, SRSS, 65, -, 1.0, -, 4.1, 7.2, 0.1, "San Fernando", 1971, "Gormon - Oso Pump Plant", 6.61, Reverse, 43.95, 46.78, 308.35, 0.125, 1.0, RSN65_SFERN_OPP000.AT2, RSN65_SFERN_OPP270.AT2 , RSN65_SFERN_OPP-UP.AT2  
31, SRSS, 66, -, 1.0, -, 9.4, 23.9, 0.0, "San Fernando", 1971, "Hemet Fire Station", 6.61, Reverse, 139.14, 139.14, 328.09, 0.5, 1.0, RSN66_SFERN_H05135.AT2, RSN66_SFERN_H05225.AT2 , RSN66_SFERN_H05DWN.AT2  
32, SRSS, 67, -, 1.0, -, 20.2, 26.5, 0.0, "San Fernando", 1971, "Isabella Dam (Aux Abut)", 6.61, Reverse, 130.0, 130.98, 591.0, 0.125, 1.0, RSN67_SFERN_ISD014.AT2, RSN67_SFERN_ISD284.AT2 , RSN67_SFERN_ISDDWN.AT2  
33, SRSS, 68, -, 1.0, -, 5.2, 13.4, 0.7, "San Fernando", 1971, "LA - Hollywood Stor FF", 6.61, Reverse, 22.77, 22.77, 316.46, 0.1, 1.0, RSN68_SFERN_PEL090.AT2, RSN68_SFERN_PEL180.AT2 , RSN68_SFERN_PEL-UP.AT2  
34, SRSS, 69, -, 1.0, -, 41.5, 52.4, 0.1, "San Fernando", 1971, "LB - Terminal Island", 6.61, Reverse, 58.99, 58.99, 217.92, 0.125, 1.0, RSN69_SFERN_TLI249.AT2, RSN69_SFERN_TLI339.AT2 , RSN69_SFERN_TLI-UP.AT2  
35, SRSS, 70, -, 1.0, -, 8.0, 18.4, 0.3, "San Fernando", 1971, "Lake Hughes #1", 6.61, Reverse, 22.23, 27.4, 425.34, 0.15, 1.0, RSN70_SFERN_L01021.AT2, RSN70_SFERN_L01111.AT2 , RSN70_SFERN_L01DWN.AT2  
36, SRSS, 71, -, 1.0, -, 2.8, 12.0, 0.9, "San Fernando", 1971, "Lake Hughes #12", 6.61, Reverse, 13.99, 19.3, 602.1, 0.25, 1.0, RSN71_SFERN_L12021.AT2, RSN71_SFERN_L12291.AT2 , RSN71_SFERN_L12DWN.AT2  
37, SRSS, 72, -, 1.0, -, 4.2, 13.0, 0.3, "San Fernando", 1971, "Lake Hughes #4", 6.61, Reverse, 19.45, 25.07, 600.06, 0.25, 1.0, RSN72_SFERN_L04111.AT2, RSN72_SFERN_L04201.AT2 , RSN72_SFERN_L04DWN.AT2  
38, SRSS, 73, -, 1.0, -, 3.0, 11.8, 0.2, "San Fernando", 1971, "Lake Hughes #9", 6.61, Reverse, 17.22, 22.57, 670.84, 0.625, 1.0, RSN73_SFERN_L09021.AT2, RSN73_SFERN_L09291.AT2 , RSN73_SFERN_L09DWN.AT2  
39, SRSS, 74, -, 1.0, -, 18.2, 29.6, 0.0, "San Fernando", 1971, "Maricopa Array #1", 6.61, Reverse, 193.25, 193.91, 303.79, 0.125, 1.0, RSN74_SFERN_MA1130.AT2, RSN74_SFERN_MA1220.AT2 , RSN74_SFERN_MA1DWN.AT2  
40, SRSS, 75, -, 1.0, -, 14.3, 22.4, 0.0, "San Fernando", 1971, "Maricopa Array #2", 6.61, Reverse, 108.56, 109.73, 443.85, 0.25, 1.0, RSN75_SFERN_MA2130.AT2, RSN75_SFERN_MA2220.AT2 , RSN75_SFERN_MA2DWN.AT2  
41, SRSS, 76, -, 1.0, -, 16.6, 23.4, 0.0, "San Fernando", 1971, "Maricopa Array #3", 6.61, Reverse, 109.01, 110.18, 441.25, 0.25, 1.0, RSN76_SFERN_MA3130.AT2, RSN76_SFERN_MA3220.AT2 , RSN76_SFERN_MA3DWN.AT2  
42, SRSS, 77, -, 1.0, 1.638, 5.8, 7.3, 8.9, "San Fernando", 1971, "Pacoima Dam (upper left abut)", 6.61, Reverse, 0.0, 1.81, 2016.13, 0.0875, 1.0, RSN77_SFERN_PUL164.AT2, RSN77_SFERN_PUL254.AT2 , RSN77_SFERN_PULDWN.AT2  
43, SRSS, 78, -, 1.0, -, 10.0, 18.9, 0.3, "San Fernando", 1971, "Palmdale Fire Station", 6.61, Reverse, 24.16, 28.99, 452.86, 0.1875, 1.0, RSN78_SFERN_PDL120.AT2, RSN78_SFERN_PDL210.AT2 ,  -----   
44, SRSS, 79, -, 1.0, -, 6.7, 14.5, 0.2, "San Fernando", 1971, "Pasadena - CIT Athenaeum", 6.61, Reverse, 25.47, 25.47, 415.13, 0.375, 1.0, RSN79_SFERN_PAS000.AT2, RSN79_SFERN_PAS090.AT2 , RSN79_SFERN_PASDWN.AT2  
45, SRSS, 80, -, 1.0, -, 5.7, 14.1, 0.3, "San Fernando", 1971, "Pasadena - Old Seismo Lab", 6.61, Reverse, 21.5, 21.5, 969.07, 0.625, 1.0, RSN80_SFERN_PSL180.AT2, RSN80_SFERN_PSL270.AT2 , RSN80_SFERN_PSLDWN.AT2  
46, SRSS, 81, -, 1.0, -, 7.1, 13.7, 0.2, "San Fernando", 1971, "Pearblossom Pump", 6.61, Reverse, 35.54, 38.97, 529.09, 0.25, 1.0, RSN81_SFERN_PPP000.AT2, RSN81_SFERN_PPP270.AT2 , RSN81_SFERN_PPPDWN.AT2  
47, SRSS, 82, -, 1.0, -, 38.5, 49.2, 0.0, "San Fernando", 1971, "Port Hueneme", 6.61, Reverse, 68.84, 68.84, 248.98, 0.0625, 1.0, RSN82_SFERN_PHN180.AT2, RSN82_SFERN_PHN270.AT2 , RSN82_SFERN_PHN-UP.AT2  
48, SRSS, 83, -, 1.0, -, 6.4, 14.3, 0.0, "San Fernando", 1971, "Puddingstone Dam (Abutment)", 6.61, Reverse, 52.64, 52.64, 421.44, 0.25, 1.0, RSN83_SFERN_PUD055.AT2, RSN83_SFERN_PUD325.AT2 , RSN83_SFERN_PUDDWN.AT2  
49, SRSS, 84, -, 1.0, -, 15.3, 24.2, 0.0, "San Fernando", 1971, "San Diego Gas & Electric", 6.61, Reverse, 205.77, 205.77, 354.06, 0.125, 1.0, RSN84_SFERN_SDC000.AT2, RSN84_SFERN_SDC090.AT2 , RSN84_SFERN_SDCDWN.AT2  
50, SRSS, 85, -, 1.0, -, 17.5, 48.2, 0.0, "San Fernando", 1971, "San Juan Capistrano", 6.61, Reverse, 108.01, 108.01, 459.37, 0.25, 1.0, RSN85_SFERN_SJC033.AT2, RSN85_SFERN_SJC303.AT2 , RSN85_SFERN_SJCDWN.AT2  
51, SRSS, 86, -, 1.0, -, 15.8, 35.5, 0.0, "San Fernando", 1971, "San Onofre - So Cal Edison", 6.61, Reverse, 124.79, 124.79, 442.88, 0.25, 1.0, RSN86_SFERN_SON033.AT2, RSN86_SFERN_SON303.AT2 , RSN86_SFERN_SONDWN.AT2  
52, SRSS, 87, -, 1.0, -, 6.4, 11.3, 0.3, "San Fernando", 1971, "Santa Anita Dam", 6.61, Reverse, 30.7, 30.7, 667.13, 0.375, 1.0, RSN87_SFERN_SAD003.AT2, RSN87_SFERN_SAD273.AT2 , RSN87_SFERN_SADDWN.AT2  
53, SRSS, 88, -, 1.0, -, 7.4, 23.6, 0.2, "San Fernando", 1971, "Santa Felita Dam (Outlet)", 6.61, Reverse, 24.69, 24.87, 389.0, 0.125, 1.0, RSN88_SFERN_FSD172.AT2, RSN88_SFERN_FSD262.AT2 , RSN88_SFERN_FSD-UP.AT2  
54, SRSS, 89, -, 1.0, -, 3.7, 9.5, 0.0, "San Fernando", 1971, "Tehachapi Pump", 6.61, Reverse, 61.75, 63.79, 669.48, 0.25, 1.0, RSN89_SFERN_TEH090.AT2, RSN89_SFERN_TEH180.AT2 , RSN89_SFERN_TEHDWN.AT2  
55, SRSS, 90, -, 1.0, -, 28.5, 49.3, 0.0, "San Fernando", 1971, "UCSB - Fluid Mech Lab", 6.61, Reverse, 124.38, 124.41, 322.42, 0.25, 1.0, RSN90_SFERN_SBF042.AT2, RSN90_SFERN_SBF132.AT2 , RSN90_SFERN_SBF-UP.AT2  
56, SRSS, 91, -, 1.0, -, 7.1, 14.3, 0.1, "San Fernando", 1971, "Upland - San Antonio Dam", 6.61, Reverse, 61.72, 61.73, 487.23, 0.375, 1.0, RSN91_SFERN_SOD015.AT2, RSN91_SFERN_SOD285.AT2 , RSN91_SFERN_SODDWN.AT2  
57, SRSS, 92, -, 1.0, -, 7.2, 17.9, 0.0, "San Fernando", 1971, "Wheeler Ridge - Ground", 6.61, Reverse, 68.38, 70.23, 347.67, 0.125, 1.0, RSN92_SFERN_WRP090.AT2, RSN92_SFERN_WRP180.AT2 , RSN92_SFERN_WRP-UP.AT2  
58, SRSS, 93, -, 1.0, -, 7.2, 21.5, 0.2, "San Fernando", 1971, "Whittier Narrows Dam", 6.61, Reverse, 39.45, 39.45, 298.68, 0.125, 1.0, RSN93_SFERN_WND143.AT2, RSN93_SFERN_WND233.AT2 , RSN93_SFERN_WNDDWN.AT2  
59, SRSS, 94, -, 1.0, -, 7.3, 11.7, 0.0, "San Fernando", 1971, "Wrightwood - 6074 Park Dr", 6.61, Reverse, 61.64, 62.23, 486.0, 0.25, 1.0, RSN94_SFERN_WTW025.AT2, RSN94_SFERN_WTW295.AT2 , RSN94_SFERN_WTWDWN.AT2  
60, SRSS, 95, -, 1.0, -, 4.9, 10.6, 2.0, "Managua_ Nicaragua-01", 1972, "Managua_ ESSO", 6.24, strike slip, 3.51, 4.06, 288.77, 0.375, 1.0, RSN95_MANAGUA_A-ESO090.AT2, RSN95_MANAGUA_A-ESO180.AT2 , RSN95_MANAGUA_A-ESODWN.AT2  
61, SRSS, 121, -, 1.0, -, 4.3, 10.4, 0.0, "Friuli_ Italy-01", 1976, "Barcis", 6.5, Reverse, 49.13, 49.38, 496.46, 0.15, 1.0, RSN121_FRIULI.A_A-BCS000.AT2, RSN121_FRIULI.A_A-BCS270.AT2 , RSN121_FRIULI.A_A-BCS-UP.AT2  
62, SRSS, 122, -, 1.0, -, 10.5, 19.0, 0.1, "Friuli_ Italy-01", 1976, "Codroipo", 6.5, Reverse, 33.32, 33.4, 249.28, 0.125, 1.0, RSN122_FRIULI.A_A-COD000.AT2, RSN122_FRIULI.A_A-COD270.AT2 , RSN122_FRIULI.A_A-COD-UP.AT2  
63, SRSS, 123, -, 1.0, -, 8.4, 19.1, 0.1, "Friuli_ Italy-01", 1976, "Conegliano", 6.5, Reverse, 80.37, 80.41, 352.05, 0.5, 1.0, RSN123_FRIULI.A_A-CLV000.AT2, RSN123_FRIULI.A_A-CLV270.AT2 , RSN123_FRIULI.A_A-CLV-UP.AT2  
64, SRSS, 124, -, 1.0, -, 5.0, 12.7, 0.0, "Friuli_ Italy-01", 1976, "Feltre", 6.5, Reverse, 102.05, 102.15, 356.39, 1.125, 1.0, RSN124_FRIULI.A_A-FLT000.AT2, RSN124_FRIULI.A_A-FLT270.AT2 , RSN124_FRIULI.A_A-FLT-UP.AT2  
65, SRSS, 125, -, 1.0, -, 2.5, 4.9, 1.2, "Friuli_ Italy-01", 1976, "Tolmezzo", 6.5, Reverse, 14.97, 15.82, 505.23, 0.1625, 1.0, RSN125_FRIULI.A_A-TMZ000.AT2, RSN125_FRIULI.A_A-TMZ270.AT2 , RSN125_FRIULI.A_A-TMZ-UP.AT2  
66, SRSS, 126, -, 1.0, -, 5.6, 7.0, 5.7, "Gazli_ USSR", 1976, "Karakyr", 6.8, Reverse, 3.92, 5.46, 259.59, 0.25, 1.0, RSN126_GAZLI_GAZ000.AT2, RSN126_GAZLI_GAZ090.AT2 , RSN126_GAZLI_GAZ-UP.AT2  
67, SRSS, 137, -, 1.0, -, 21.3, 25.9, 0.1, "Tabas_ Iran", 1978, "Bajestan", 7.35, Reverse, 119.77, 120.81, 377.56, 0.15625, 1.0, RSN137_TABAS_BAJ-L1.AT2, RSN137_TABAS_BAJ-T1.AT2 , RSN137_TABAS_BAJ-V1.AT2  
68, SRSS, 138, -, 1.0, -, 14.6, 19.5, 0.3, "Tabas_ Iran", 1978, "Boshrooyeh", 7.35, Reverse, 24.07, 28.79, 324.57, 0.15625, 1.0, RSN138_TABAS_BOS-L1.AT2, RSN138_TABAS_BOS-T1.AT2 , RSN138_TABAS_BOS-V1.AT2  
69, SRSS, 139, -, 1.0, -, 6.7, 11.3, 1.4, "Tabas_ Iran", 1978, "Dayhook", 7.35, Reverse, 0.0, 13.94, 471.53, 0.25, 1.0, RSN139_TABAS_DAY-L1.AT2, RSN139_TABAS_DAY-T1.AT2 , RSN139_TABAS_DAY-V1.AT2  
70, SRSS, 140, -, 1.0, -, 20.5, 24.2, 0.2, "Tabas_ Iran", 1978, "Ferdows", 7.35, Reverse, 89.76, 91.14, 302.64, 0.15625, 1.0, RSN140_TABAS_FER-L1.AT2, RSN140_TABAS_FER-T1.AT2 , RSN140_TABAS_FER-V1.AT2  
71, SRSS, 141, -, 1.0, -, 16.8, 26.4, 0.1, "Tabas_ Iran", 1978, "Kashmar", 7.35, Reverse, 193.91, 194.55, 280.26, 0.15625, 1.0, RSN141_TABAS_KSH-L1.AT2, RSN141_TABAS_KSH-T1.AT2 , RSN141_TABAS_KSH-V1.AT2  
72, SRSS, 142, -, 1.0, -, 22.7, 30.1, 0.0, "Tabas_ Iran", 1978, "Sedeh", 7.35, Reverse, 150.33, 151.16, 354.37, 0.15625, 1.0, RSN142_TABAS_SED-L1.AT2, RSN142_TABAS_SED-T1.AT2 , RSN142_TABAS_SED-V1.AT2  
73, SRSS, 143, -, 1.0, 6.188, 8.3, 16.5, 11.8, "Tabas_ Iran", 1978, "Tabas", 7.35, Reverse, 1.79, 2.05, 766.77, 0.125, 1.0, RSN143_TABAS_TAB-L1.AT2, RSN143_TABAS_TAB-T1.AT2 , RSN143_TABAS_TAB-V1.AT2  
74, SRSS, 158, -, 1.0, -, 6.1, 9.8, 1.2, "Imperial Valley-06", 1979, "Aeropuerto Mexicali", 6.53, strike slip, 0.0, 0.34, 259.86, 0.2875, 1.0, RSN158_IMPVALL.H_H-AEP045.AT2, RSN158_IMPVALL.H_H-AEP315.AT2 , RSN158_IMPVALL.H_H-AEP-UP.AT2  
75, SRSS, 159, -, 1.0, 2.338, 6.7, 13.3, 1.0, "Imperial Valley-06", 1979, "Agrarias", 6.53, strike slip, 0.0, 0.65, 242.05, 0.1625, 1.0, RSN159_IMPVALL.H_H-AGR003.AT2, RSN159_IMPVALL.H_H-AGR273.AT2 , RSN159_IMPVALL.H_H-AGRDWN.AT2  
76, SRSS, 160, -, 1.0, -, 6.1, 9.7, 6.1, "Imperial Valley-06", 1979, "Bonds Corner", 6.53, strike slip, 0.44, 2.66, 223.03, 0.125, 1.0, RSN160_IMPVALL.H_H-BCR140.AT2, RSN160_IMPVALL.H_H-BCR230.AT2 , RSN160_IMPVALL.H_H-BCR-UP.AT2  
77, SRSS, 161, -, 1.0, 4.396, 5.3, 14.9, 0.4, "Imperial Valley-06", 1979, "Brawley Airport", 6.53, strike slip, 8.54, 10.42, 208.71, 0.05375, 1.0, RSN161_IMPVALL.H_H-BRA225.AT2, RSN161_IMPVALL.H_H-BRA315.AT2 , RSN161_IMPVALL.H_H-BRA-UP.AT2  
78, SRSS, 162, -, 1.0, -, 7.2, 14.8, 0.9, "Imperial Valley-06", 1979, "Calexico Fire Station", 6.53, strike slip, 10.45, 10.45, 231.23, 0.05, 1.0, RSN162_IMPVALL.H_H-CXO225.AT2, RSN162_IMPVALL.H_H-CXO315.AT2 , RSN162_IMPVALL.H_H-CXO-UP.AT2  
79, SRSS, 163, -, 1.0, -, 12.2, 25.9, 0.1, "Imperial Valley-06", 1979, "Calipatria Fire Station", 6.53, strike slip, 23.17, 24.6, 205.78, 0.0875, 1.0, RSN163_IMPVALL.H_H-CAL225.AT2, RSN163_IMPVALL.H_H-CAL315.AT2 , RSN163_IMPVALL.H_H-CAL-UP.AT2  
80, SRSS, 164, -, 1.0, -, 19.7, 36.4, 1.3, "Imperial Valley-06", 1979, "Cerro Prieto", 6.53, strike slip, 15.19, 15.19, 471.53, 0.1125, 1.0, RSN164_IMPVALL.H_H-CPE147.AT2, RSN164_IMPVALL.H_H-CPE237.AT2 , RSN164_IMPVALL.H_H-CPEDWN.AT2  
81, SRSS, 165, -, 1.0, -, 13.2, 24.0, 1.2, "Imperial Valley-06", 1979, "Chihuahua", 6.53, strike slip, 7.29, 7.29, 242.05, 0.225, 1.0, RSN165_IMPVALL.H_H-CHI012.AT2, RSN165_IMPVALL.H_H-CHI282.AT2 , RSN165_IMPVALL.H_H-CHIDWN.AT2  
82, SRSS, 166, -, 1.0, -, 4.7, 11.1, 0.2, "Imperial Valley-06", 1979, "Coachella Canal #4", 6.53, strike slip, 49.1, 50.1, 336.49, 0.1375, 1.0, RSN166_IMPVALL.H_H-CC4045.AT2, RSN166_IMPVALL.H_H-CC4135.AT2 , RSN166_IMPVALL.H_H-CC4-UP.AT2  
83, SRSS, 167, -, 1.0, -, 13.4, 28.7, 0.4, "Imperial Valley-06", 1979, "Compuertas", 6.53, strike slip, 13.52, 15.3, 259.86, 0.15, 1.0, RSN167_IMPVALL.H_H-CMP015.AT2, RSN167_IMPVALL.H_H-CMP285.AT2 , RSN167_IMPVALL.H_H-CMPDWN.AT2  
84, SRSS, 169, -, 1.0, -, 24.4, 51.4, 3.3, "Imperial Valley-06", 1979, "Delta", 6.53, strike slip, 22.03, 22.03, 242.05, 0.0875, 1.0, RSN169_IMPVALL.H_H-DLT262.AT2, RSN169_IMPVALL.H_H-DLT352.AT2 , RSN169_IMPVALL.H_H-DLTDWN.AT2  
85, SRSS, 170, -, 1.0, 4.417, 4.7, 13.2, 0.8, "Imperial Valley-06", 1979, "EC County Center FF", 6.53, strike slip, 7.31, 7.31, 192.05, 0.075, 1.0, RSN170_IMPVALL.H_H-ECC002.AT2, RSN170_IMPVALL.H_H-ECC092.AT2 , RSN170_IMPVALL.H_H-ECC-UP.AT2  
86, SRSS, 171, -, 1.0, 3.423, 2.3, 8.2, 1.1, "Imperial Valley-06", 1979, "El Centro - Meloland Geot. Array", 6.53, strike slip, 0.07, 0.07, 264.57, 0.1, 1.0, RSN171_IMPVALL.H_H-EMO000.AT2, RSN171_IMPVALL.H_H-EMO270.AT2 , RSN171_IMPVALL.H_H-EMO-UP.AT2  
